{
  "type": "FeatureCollection",
  "features": [
    {
      "type": "Feature",
      "properties": {
        "norad_id": 66746,
        "name": "TRANSPORTER-15CJ",
        "group": "last-30-days",
        "lat": -56.47173231281786,
        "lon": -120.00980600010246,
        "alt_km": 507.83598406379133,
        "timestamp": "2025-12-25T16:53:13.372073+00:00",
        "meta_object_name": "TRANSPORTER-15CJ",
        "meta_object_id": "2025-276CJ",
        "meta_epoch": "2025-12-24T17:43:08.359680",
        "meta_mean_motion": 15.19407301,
        "meta_eccentricity": 0.00133735,
        "meta_inclination": 97.3836,
        "meta_ra_of_asc_node": 70.3325,
        "meta_arg_of_pericenter": 197.9255,
        "meta_mean_anomaly": 162.151,
        "meta_ephemeris_type": 0,
        "meta_classification_type": "U",
        "meta_norad_cat_id": 66746,
        "meta_element_set_no": 999,
        "meta_rev_at_epoch": 394,
        "meta_bstar": 0.00092520196,
        "meta_mean_motion_dot": 0.00019602,
        "meta_mean_motion_ddot": 0,
        "tle_line1": "1 66746U 25276CJ  25358.73829120  .00019602  00000+0  92520-3 0  9994",
        "tle_line2": "2 66746  97.3836  70.3325 0013373 197.9255 162.1510 15.19407301  3945"
      },
      "geometry": {
        "type": "Point",
        "coordinates": [
          -120.00980600010246,
          -56.47173231281786
        ]
      }
    },
    {
      "type": "Feature",
      "properties": {
        "norad_id": 66747,
        "name": "W-SERIES 5",
        "group": "last-30-days",
        "lat": -53.301910362301335,
        "lon": -118.85195228772605,
        "alt_km": 519.5100851142579,
        "timestamp": "2025-12-25T16:53:13.372083+00:00",
        "meta_object_name": "W-SERIES 5",
        "meta_object_id": "2025-276CK",
        "meta_epoch": "2025-12-25T08:00:01.000224",
        "meta_mean_motion": 15.17591457,
        "meta_eccentricity": 0.00015559,
        "meta_inclination": 97.4407,
        "meta_ra_of_asc_node": 70.8831,
        "meta_arg_of_pericenter": 192.5033,
        "meta_mean_anomaly": 179.711,
        "meta_ephemeris_type": 0,
        "meta_classification_type": "U",
        "meta_norad_cat_id": 66747,
        "meta_element_set_no": 999,
        "meta_rev_at_epoch": 130,
        "meta_bstar": -0.002914651,
        "meta_mean_motion_dot": -0.00058128,
        "meta_mean_motion_ddot": 0,
        "tle_line1": "1 66747U 25276CK  25359.33334491 -.00058128  00000+0 -29147-2 0  9996",
        "tle_line2": "2 66747  97.4407  70.8831 0001555 192.5033 179.7110 15.17591457  1304"
      },
      "geometry": {
        "type": "Point",
        "coordinates": [
          -118.85195228772605,
          -53.301910362301335
        ]
      }
    },
    {
      "type": "Feature",
      "properties": {
        "norad_id": 66748,
        "name": "TRANSPORTER-15CL",
        "group": "last-30-days",
        "lat": -67.30093853145546,
        "lon": 89.47359229831679,
        "alt_km": 515.812805625581,
        "timestamp": "2025-12-25T16:53:13.372092+00:00",
        "meta_object_name": "TRANSPORTER-15CL",
        "meta_object_id": "2025-276CL",
        "meta_epoch": "2025-12-25T06:07:06.277728",
        "meta_mean_motion": 15.18599391,
        "meta_eccentricity": 0.0002585,
        "meta_inclination": 97.44,
        "meta_ra_of_asc_node": 70.8275,
        "meta_arg_of_pericenter": 258.0331,
        "meta_mean_anomaly": 102.0614,
        "meta_ephemeris_type": 0,
        "meta_classification_type": "U",
        "meta_norad_cat_id": 66748,
        "meta_element_set_no": 999,
        "meta_rev_at_epoch": 402,
        "meta_bstar": 0.0013305435,
        "meta_mean_motion_dot": 0.00027538,
        "meta_mean_motion_ddot": 0,
        "tle_line1": "1 66748U 25276CL  25359.25493377  .00027538  00000+0  13305-2 0  9995",
        "tle_line2": "2 66748  97.4400  70.8275 0002585 258.0331 102.0614 15.18599391  4029"
      },
      "geometry": {
        "type": "Point",
        "coordinates": [
          89.47359229831679,
          -67.30093853145546
        ]
      }
    },
    {
      "type": "Feature",
      "properties": {
        "norad_id": 66749,
        "name": "TRANSPORTER-15CM",
        "group": "last-30-days",
        "lat": -77.70537082669765,
        "lon": -145.58652190053894,
        "alt_km": 519.32957404852,
        "timestamp": "2025-12-25T16:53:13.372102+00:00",
        "meta_object_name": "TRANSPORTER-15CM",
        "meta_object_id": "2025-276CM",
        "meta_epoch": "2025-12-25T06:15:05.662080",
        "meta_mean_motion": 15.17909159,
        "meta_eccentricity": 0.00020652,
        "meta_inclination": 97.4395,
        "meta_ra_of_asc_node": 70.8173,
        "meta_arg_of_pericenter": 177.9988,
        "meta_mean_anomaly": 182.1254,
        "meta_ephemeris_type": 0,
        "meta_classification_type": "U",
        "meta_norad_cat_id": 66749,
        "meta_element_set_no": 999,
        "meta_rev_at_epoch": 402,
        "meta_bstar": 0.00049973746,
        "meta_mean_motion_dot": 0.00010074,
        "meta_mean_motion_ddot": 0,
        "tle_line1": "1 66749U 25276CM  25359.26048220  .00010074  00000+0  49974-3 0  9999",
        "tle_line2": "2 66749  97.4395  70.8173 0002065 177.9988 182.1254 15.17909159  4025"
      },
      "geometry": {
        "type": "Point",
        "coordinates": [
          -145.58652190053894,
          -77.70537082669765
        ]
      }
    },
    {
      "type": "Feature",
      "properties": {
        "norad_id": 66750,
        "name": "TRANSPORTER-15CN",
        "group": "last-30-days",
        "lat": -78.60091153959391,
        "lon": 111.70120950584307,
        "alt_km": 520.1869820218253,
        "timestamp": "2025-12-25T16:53:13.372112+00:00",
        "meta_object_name": "TRANSPORTER-15CN",
        "meta_object_id": "2025-276CN",
        "meta_epoch": "2025-12-25T06:10:16.826016",
        "meta_mean_motion": 15.18060695,
        "meta_eccentricity": 0.00023386,
        "meta_inclination": 97.4434,
        "meta_ra_of_asc_node": 70.8376,
        "meta_arg_of_pericenter": 144.473,
        "meta_mean_anomaly": 215.666,
        "meta_ephemeris_type": 0,
        "meta_classification_type": "U",
        "meta_norad_cat_id": 66750,
        "meta_element_set_no": 999,
        "meta_rev_at_epoch": 402,
        "meta_bstar": 0.00048240717,
        "meta_mean_motion_dot": 9.765e-05,
        "meta_mean_motion_ddot": 0,
        "tle_line1": "1 66750U 25276CN  25359.25713919  .00009765  00000+0  48241-3 0  9995",
        "tle_line2": "2 66750  97.4434  70.8376 0002338 144.4730 215.6660 15.18060695  4020"
      },
      "geometry": {
        "type": "Point",
        "coordinates": [
          111.70120950584307,
          -78.60091153959391
        ]
      }
    },
    {
      "type": "Feature",
      "properties": {
        "norad_id": 66751,
        "name": "ICEYE-X58",
        "group": "last-30-days",
        "lat": -75.51780083144246,
        "lon": -139.1376415872512,
        "alt_km": 518.9610221842831,
        "timestamp": "2025-12-25T16:53:13.372139+00:00",
        "meta_object_name": "ICEYE-X58",
        "meta_object_id": "2025-276CP",
        "meta_epoch": "2025-12-25T06:15:45.442368",
        "meta_mean_motion": 15.17827886,
        "meta_eccentricity": 0.00025225,
        "meta_inclination": 97.4408,
        "meta_ra_of_asc_node": 70.8249,
        "meta_arg_of_pericenter": 195.1148,
        "meta_mean_anomaly": 165.0011,
        "meta_ephemeris_type": 0,
        "meta_classification_type": "U",
        "meta_norad_cat_id": 66751,
        "meta_element_set_no": 999,
        "meta_rev_at_epoch": 402,
        "meta_bstar": 0.00041917903,
        "meta_mean_motion_dot": 8.418e-05,
        "meta_mean_motion_ddot": 0,
        "tle_line1": "1 66751U 25276CP  25359.26094262  .00008418  00000+0  41918-3 0  9998",
        "tle_line2": "2 66751  97.4408  70.8249 0002522 195.1148 165.0011 15.17827886  4022"
      },
      "geometry": {
        "type": "Point",
        "coordinates": [
          -139.1376415872512,
          -75.51780083144246
        ]
      }
    },
    {
      "type": "Feature",
      "properties": {
        "norad_id": 66752,
        "name": "ICEYE-X59",
        "group": "last-30-days",
        "lat": -58.14638070477375,
        "lon": -120.88964729187903,
        "alt_km": 518.8334730397955,
        "timestamp": "2025-12-25T16:53:13.372152+00:00",
        "meta_object_name": "ICEYE-X59",
        "meta_object_id": "2025-276CQ",
        "meta_epoch": "2025-12-25T04:45:38.399040",
        "meta_mean_motion": 15.17630236,
        "meta_eccentricity": 0.0001955,
        "meta_inclination": 97.4402,
        "meta_ra_of_asc_node": 70.7555,
        "meta_arg_of_pericenter": 222.6966,
        "meta_mean_anomaly": 137.4116,
        "meta_ephemeris_type": 0,
        "meta_classification_type": "U",
        "meta_norad_cat_id": 66752,
        "meta_element_set_no": 999,
        "meta_rev_at_epoch": 401,
        "meta_bstar": 0.00047992498,
        "meta_mean_motion_dot": 9.594e-05,
        "meta_mean_motion_ddot": 0,
        "tle_line1": "1 66752U 25276CQ  25359.19836110  .00009594  00000+0  47992-3 0  9991",
        "tle_line2": "2 66752  97.4402  70.7555 0001955 222.6966 137.4116 15.17630236  4018"
      },
      "geometry": {
        "type": "Point",
        "coordinates": [
          -120.88964729187903,
          -58.14638070477375
        ]
      }
    }
  ]
}